NORAD_CAT_ID,OBJECT_NAME,OBJECT_TYPE,EPOCH,MEAN_MOTION,ECCENTRICITY,INCLINATION,RA_OF_ASC_NODE,ARG_OF_PERICENTER,MEAN_ANOMALY,BSTAR,MEAN_MOTION_DOT,MEAN_MOTION_DDOT,TLE_LINE0,TLE_LINE1,TLE_LINE2,SEMIMAJOR_AXIS,PERIOD,APOGEE,PERIGEE,DECAYED
51853.0,STARLINK-3539,PAYLOAD,2023-07-19 17:35:38,15.08837626,0.0001071,53.2177,26.4985,77.7487,282.3625,-7.3615e-05,-1.459e-05,0.0,0 STARLINK-3539,1 51853U 22022B   23200.73308545 -.00001459  00000-0 -73615-4 0  9999,2 51853  53.2177  26.4985 0001071  77.7487 282.3625 15.08837626 77437,6917.888,95.438,540.494,539.012,0.0
51853.0,STARLINK-3539,PAYLOAD,2023-07-20 17:26:25,15.08847602,9.97e-05,53.2172,22.0392,81.0675,279.043,0.00025329,3.746e-05,0.0,0 STARLINK-3539,1 51853U 22022B   23201.72668161  .00003746  00000-0  25329-3 0  9999,2 51853  53.2172  22.0392 0000997  81.0675 279.0430 15.08847602 77587,6917.857,95.437,540.412,539.032,0.0
51853.0,STARLINK-3539,PAYLOAD,2023-07-24 10:28:01,15.08838663,0.0001368,53.2177,5.3813,135.8507,224.2594,3.7792e-05,3.14e-06,0.0,0 STARLINK-3539,1 51853U 22022B   23205.43612768  .00000314  00000-0  37792-4 0  9999,2 51853  53.2177   5.3813 0001368 135.8507 224.2594 15.08838663 78142,6917.884,95.438,540.696,538.803,0.0
51853.0,STARLINK-3539,PAYLOAD,2023-07-25 10:18:48,15.08840198,0.0001979,53.2128,0.9228,105.8063,254.3147,0.00012037,1.628e-05,0.0,0 STARLINK-3539,1 51853U 22022B   23206.42973026  .00001628  00000-0  12037-3 0  9999,2 51853  53.2128   0.9228 0001979 105.8063 254.3147 15.08840198 78291,6917.88,95.438,541.114,538.376,0.0
51853.0,STARLINK-3539,PAYLOAD,2023-07-26 10:09:34,15.0888788,5.98e-05,53.2189,356.4664,94.1924,265.9136,-0.00054217,-8.917e-05,0.0,0 STARLINK-3539,1 51853U 22022B   23207.42331811 -.00008917  00000-0 -54217-3 0  9996,2 51853  53.2189 356.4664 0000598  94.1924 265.9136 15.08887880 78445,6917.734,95.435,540.013,539.185,0.0
51853.0,STARLINK-3539,PAYLOAD,2023-07-26 18:06:30,15.08849566,0.0001908,53.2158,354.9818,74.7534,285.3669,0.00014092,1.956e-05,0.0,0 STARLINK-3539,1 51853U 22022B   23207.75452318  .00001956  00000-0  14092-3 0  9999,2 51853  53.2158 354.9818 0001908  74.7534 285.3669 15.08849566 78493,6917.851,95.437,541.036,538.396,0.0
51853.0,STARLINK-3539,PAYLOAD,2023-07-27 10:00:23,15.08834148,9.6e-05,53.2179,352.0078,68.3019,291.8075,6.6927e-05,7.77e-06,0.0,0 STARLINK-3539,1 51853U 22022B   23208.41693385  .00000777  00000-0  66927-4 0  9999,2 51853  53.2179 352.0078 0000960  68.3019 291.8075 15.08834148 78591,6917.898,95.438,540.427,539.099,0.0
51853.0,STARLINK-3539,PAYLOAD,2023-07-27 17:57:18,15.08832116,0.0001045,53.2179,350.5196,82.3596,277.7515,-2.1507e-05,-6.3e-06,0.0,0 STARLINK-3539,1 51853U 22022B   23208.74813495 -.00000630  00000-0 -21507-4 0  9996,2 51853  53.2179 350.5196 0001045  82.3596 277.7515 15.08832116 78647,6917.904,95.438,540.492,539.047,0.0
51853.0,STARLINK-3539,PAYLOAD,2023-07-28 09:51:10,15.08839473,9.2e-05,53.218,347.5468,78.1845,281.925,-3.9612e-05,-9.18e-06,0.0,0 STARLINK-3539,1 51853U 22022B   23209.41053271 -.00000918  00000-0 -39612-4 0  9994,2 51853  53.2180 347.5468 0000920  78.1845 281.9250 15.08839473 78745,6917.882,95.438,540.383,539.111,0.0
51853.0,STARLINK-3539,PAYLOAD,2023-07-28 16:12:42,15.08847372,9.57e-05,53.2177,346.3575,71.807,288.3026,8.4278e-05,1.054e-05,0.0,0 STARLINK-3539,1 51853U 22022B   23209.67548854  .00001054  00000-0  84278-4 0  9996,2 51853  53.2177 346.3575 0000957  71.8070 288.3026 15.08847372 78780,6917.858,95.437,540.385,539.061,0.0
51853.0,STARLINK-3539,PAYLOAD,2023-07-29 08:06:34,15.08836128,6.08e-05,53.2178,343.3841,60.2475,299.8578,0.00018798,2.705e-05,0.0,0 STARLINK-3539,1 51853U 22022B   23210.33789571  .00002705  00000-0  18798-3 0  9991,2 51853  53.2178 343.3841 0000608  60.2475 299.8578 15.08836128 78885,6917.892,95.438,540.178,539.337,0.0
51853.0,STARLINK-3539,PAYLOAD,2023-07-30 09:32:44,15.08836435,5.62e-05,53.2208,338.6286,60.2094,299.8954,6.7289e-05,7.83e-06,0.0,0 STARLINK-3539,1 51853U 22022B   23211.39773664  .00000783  00000-0  67289-4 0  9998,2 51853  53.2208 338.6286 0000562  60.2094 299.8954 15.08836435 79043,6917.891,95.438,540.145,539.368,0.0
51853.0,STARLINK-3539,PAYLOAD,2023-07-31 17:20:26,15.08849098,5.23e-05,53.2183,332.6792,351.931,8.1673,0.00013507,1.863e-05,0.0,0 STARLINK-3539,1 51853U 22022B   23212.72252818  .00001863  00000-0  13507-3 0  9992,2 51853  53.2183 332.6792 0000523 351.9310   8.1673 15.08849098 79249,6917.853,95.437,540.079,539.356,0.0
51853.0,STARLINK-3539,PAYLOAD,2023-08-01 17:11:13,15.08849065,0.0001032,53.218,328.2178,92.051,268.06,8.5016e-05,1.066e-05,0.0,0 STARLINK-3539,1 51853U 22022B   23213.71612826  .00001066  00000-0  85016-4 0  9991,2 51853  53.2180 328.2178 0001032  92.0510 268.0600 15.08849065 79393,6917.853,95.437,540.432,539.004,0.0
51853.0,STARLINK-3539,PAYLOAD,2023-08-02 07:29:42,15.088363,0.0001283,53.2189,325.54,99.0393,261.0744,9.2374e-06,-1.41e-06,0.0,0 STARLINK-3539,1 51853U 22022B   23214.31229830 -.00000141  00000-0  92374-5 0  9997,2 51853  53.2189 325.5400 0001283  99.0393 261.0744 15.08836300 79484,6917.892,95.438,540.644,538.869,0.0
51853.0,STARLINK-3539,PAYLOAD,2023-08-02 13:51:14,15.08846303,0.0001012,53.2179,324.3527,94.8373,265.2735,3.4925e-05,2.68e-06,0.0,0 STARLINK-3539,1 51853U 22022B   23214.57725086  .00000268  00000-0  34925-4 0  9995,2 51853  53.2179 324.3527 0001012  94.8373 265.2735 15.08846303 79526,6917.861,95.437,540.426,539.026,0.0
51853.0,STARLINK-3539,PAYLOAD,2023-08-04 10:22:03,15.08833006,9.33e-05,53.2174,316.0276,87.6999,272.41,2.6718e-06,-2.45e-06,0.0,0 STARLINK-3539,1 51853U 22022B   23216.43198032 -.00000245  00000-0  26718-5 0  9995,2 51853  53.2174 316.0276 0000933  87.6999 272.4100 15.08833006 79808,6917.902,95.438,540.412,539.121,0.0
51853.0,STARLINK-3539,PAYLOAD,2023-08-05 10:12:49,15.08847159,0.0001083,53.2176,311.5678,68.025,292.0857,0.00010207,1.337e-05,0.0,0 STARLINK-3539,1 51853U 22022B   23217.42557066  .00001337  00000-0  10207-3 0  9997,2 51853  53.2176 311.5678 0001083  68.0250 292.0857 15.08847159 79953,6917.859,95.437,540.473,538.974,0.0
51853.0,STARLINK-3539,PAYLOAD,2023-08-05 13:23:35,15.08854945,0.0001053,53.2175,310.9723,75.4817,284.6292,0.00016424,2.328e-05,0.0,0 STARLINK-3539,1 51853U 22022B   23217.55804411  .00002328  00000-0  16424-3 0  9998,2 51853  53.2175 310.9723 0001053  75.4817 284.6292 15.08854945 79977,6917.835,95.437,540.428,538.971,0.0
51853.0,STARLINK-3539,PAYLOAD,2023-08-05 22:55:54,15.08839708,0.0001183,53.2182,309.1882,105.1956,254.9167,7.3878e-05,8.88e-06,0.0,0 STARLINK-3539,1 51853U 22022B   23217.95549470  .00000888  00000-0  73878-4 0  9999,2 51853  53.2182 309.1882 0001183 105.1956 254.9167 15.08839708 80030,6917.881,95.438,540.565,538.928,0.0
51853.0,STARLINK-3539,PAYLOAD,2023-08-06 10:03:38,15.08822057,9.51e-05,53.2175,307.1078,88.4828,271.6273,1.3601e-05,-7.1e-07,0.0,0 STARLINK-3539,1 51853U 22022B   23218.41919099 -.00000071  00000-0  13601-4 0  9992,2 51853  53.2175 307.1078 0000951  88.4828 271.6273 15.08822057 80101,6917.935,95.439,540.458,539.142,0.0
51853.0,STARLINK-3539,PAYLOAD,2023-08-06 16:25:09,15.08838299,9.46e-05,53.2202,305.9189,108.0497,252.0598,-6.7883e-05,-1.368e-05,0.0,0 STARLINK-3539,1 51853U 22022B   23218.68414324 -.00001368  00000-0 -67883-4 0  9994,2 51853  53.2202 305.9189 0000946 108.0497 252.0598 15.08838299 80148,6917.886,95.438,540.405,539.096,0.0
51853.0,STARLINK-3539,PAYLOAD,2023-08-07 13:05:10,15.08844798,9.53e-05,53.2166,302.0529,90.6074,269.5027,0.00014057,1.95e-05,0.0,0 STARLINK-3539,1 51853U 22022B   23219.54525994  .00001950  00000-0  14057-3 0  9995,2 51853  53.2166 302.0529 0000953  90.6074 269.5027 15.08844798 80273,6917.866,95.437,540.39,539.071,0.0
51853.0,STARLINK-3539,PAYLOAD,2023-08-08 11:20:34,15.08847044,9.16e-05,53.2159,297.8883,107.5466,252.5627,0.00047627,7.302e-05,0.0,0 STARLINK-3539,1 51853U 22022B   23220.47262344  .00007302  00000-0  47627-3 0  9992,2 51853  53.2159 297.8883 0000916 107.5466 252.5627 15.08847044 80412,6917.859,95.437,540.358,539.09,0.0
51853.0,STARLINK-3539,PAYLOAD,2023-08-08 22:28:16,15.08838974,9.75e-05,53.2158,295.8067,89.7472,270.3632,0.00011822,1.594e-05,0.0,0 STARLINK-3539,1 51853U 22022B   23220.93630564  .00001594  00000-0  11822-3 0  9991,2 51853  53.2158 295.8067 0000975  89.7472 270.3632 15.08838974 80489,6917.884,95.438,540.423,539.074,0.0
51853.0,STARLINK-3539,PAYLOAD,2023-08-09 12:46:45,15.0883499,0.0001005,53.2159,293.1304,90.267,269.8438,1.9474e-05,2.2e-07,0.0,0 STARLINK-3539,1 51853U 22022B   23221.53246979  .00000022  00000-0  19474-4 0  9998,2 51853  53.2159 293.1304 0001005  90.2670 269.8438 15.08834990 80578,6917.896,95.438,540.456,539.065,0.0
51853.0,STARLINK-3539,PAYLOAD,2023-08-10 11:02:08,15.08850553,9.87e-05,53.2162,288.9668,89.2016,270.909,0.00037369,5.666e-05,0.0,0 STARLINK-3539,1 51853U 22022B   23222.45982586  .00005666  00000-0  37369-3 0  9992,2 51853  53.2162 288.9668 0000987  89.2016 270.9090 15.08850553 80713,6917.848,95.437,540.396,539.03,0.0
51853.0,STARLINK-3539,PAYLOAD,2023-08-11 12:28:18,15.08861716,0.000103,53.217,284.206,89.4848,270.6263,0.00036458,5.523e-05,0.0,0 STARLINK-3539,1 51853U 22022B   23223.51965508  .00005523  00000-0  36458-3 0  9995,2 51853  53.2170 284.2060 0001030  89.4848 270.6263 15.08861716 80871,6917.814,95.436,540.392,538.966,0.0
51853.0,STARLINK-3539,PAYLOAD,2023-08-12 10:43:42,15.0883638,0.0001085,53.2165,280.0433,113.7753,246.3353,-0.00014405,-2.579e-05,0.0,0 STARLINK-3539,1 51853U 22022B   23224.44702268 -.00002579  00000-0 -14405-3 0  9998,2 51853  53.2165 280.0433 0001085 113.7753 246.3353 15.08836380 81015,6917.891,95.438,540.507,539.006,0.0
51853.0,STARLINK-3539,PAYLOAD,2023-08-13 04:12:57,15.08839596,9.33e-05,53.2162,276.7747,97.632,262.4778,2.0717e-05,4.2e-07,0.0,0 STARLINK-3539,1 51853U 22022B   23225.17566468  .00000042  00000-0  20717-4 0  9994,2 51853  53.2162 276.7747 0000933  97.6320 262.4778 15.08839596 81127,6917.882,95.438,540.392,539.101,0.0
